ISTSAT-1
1 60238U 24128D   26022.95268648  .00008805  00000-0  54540-3 0  9998
2 60238  61.9905 358.8355 0052663 102.8523 257.8462 15.09280978 84523
IONOSFERA-M 01
1 61735U 24199A   26022.96935426  .00000140  00000-0  82172-4 0  9992
2 61735  98.7378 257.4952 0001104 141.4605 218.6652 14.22724921107054
IONOSFERA-M 02
1 61736U 24199B   26022.93360753  .00000144  00000-0  84138-4 0  9993
2 61736  98.7377 257.3717 0001658  57.4343 302.6995 14.22727211110177
SITRO-AIS-16
1 61737U 24199C   26022.92727560  .00005738  00000-0  50709-3 0  9996
2 61737  97.3332 231.2810 0006313 181.8447 178.2753 14.96677810110088
SITRO-AIS-15
1 61738U 24199D   26022.98022646  .00004986  00000-0  44110-3 0  9999
2 61738  97.3322 231.3633 0006229 183.7615 176.3562 14.96694566110091
SITRO-AIS-21
1 61739U 24199E   26022.95064436  .00002603  00000-0  24546-3 0  9995
2 61739  97.3335 230.2357 0012515 186.0502 174.0570 14.94525260110055
SITRO-AIS-22
1 61740U 24199F   26022.97946501  .00004880  00000-0  45001-3 0  9999
2 61740  97.3331 230.3548 0012463 185.6619 174.4464 14.95035215110213
SITRO-AIS-24
1 61741U 24199G   26022.98474794  .00005671  00000-0  52043-3 0  9994
2 61741  97.3335 230.3552 0012208 186.5932 173.5131 14.95160378110184
SITRO-AIS-23
1 61742U 24199H   26022.96952110  .00004398  00000-0  40577-3 0  9990
2 61742  97.3329 230.3690 0012288 187.4925 172.6115 14.95061924110067
SITRO-AIS-13
1 61743U 24199J   26022.99371216  .00005540  00000-0  48657-3 0  9993
2 61743  97.3330 231.4884 0005888 181.6138 178.5067 14.96940706110265
CSTP-2.11
1 61744U 24199K   26022.98018720  .00027855  00000-0  61901-3 0  9991
2 61744  97.3210 256.6328 0011512  83.5691 276.6868 15.43577840111909
POLYTECH UNIVERSE-5 (RS70S)
1 61745U 24199L   26022.93582037  .00039252  00000-0  74509-3 0  9996
2 61745  97.3188 257.5978 0009165  85.4947 274.7350 15.48152145115115
COLIBRI-S (RS67S)
1 61746U 24199M   26022.94439654  .00023009  00000-0  55492-3 0  9997
2 61746  97.3218 255.9319 0011705  86.4989 273.7597 15.41156638114992
POLYTECH UNIVERSE-4 (RS71S)
1 61747U 24199N   26022.96749142  .00019652  00000-0  49478-3 0  9992
2 61747  97.3222 255.6001 0012099  85.2433 275.0195 15.39877004114972
SITRO-AIS-44
1 61748U 24199P   26022.98049522  .00044202  00000-0  76686-3 0  9990
2 61748  97.3159 258.2481 0009090  82.9981 277.2305 15.50697276115165
VIZARD-ION (RS68S)
1 61749U 24199Q   26022.97133931  .00031065  00000-0  65156-3 0  9991
2 61749  97.3214 257.1101 0010907  81.9182 278.3304 15.45274061115074
MTUSI-1
1 61750U 24199R   26022.96570258  .00031840  00000-0  67450-3 0  9999
2 61750  97.3180 256.6400 0010823  90.3275 269.9214 15.44976687115054
VLADIVOSTOK-1
1 61751U 24199S   26022.95662190  .00011118  00000-0  34135-3 0  9996
2 61751  97.3210 253.5524 0011895 103.7012 256.5556 15.33826851114853
SITRO-AIS-14
1 61752U 24199T   26022.96549670  .00004481  00000-0  39640-3 0  9996
2 61752  97.3319 231.3805 0006040 188.2626 171.8498 14.96748624113396
HORS-3 (RS81S)
1 61753U 24199U   26022.97262029  .00031693  00000-0  66799-3 0  9998
2 61753  97.3189 256.7778 0009984  90.4828 269.7565 15.45137574115069
HORS-4 (RS82S)
1 61754U 24199V   26022.92034789  .00039168  00000-0  76478-3 0  9994
2 61754  97.3166 257.2636 0009986  87.9475 272.2918 15.47328040115091
SITRO-AIS-43
1 61755U 24199W   26022.95710289  .00045739  00000-0  78760-3 0  9991
2 61755  97.3165 258.2776 0008534  81.6040 278.6179 15.50907767115164
SITRO-AIS-42
1 61756U 24199X   26022.94187409  .00047166  00000-0  80854-3 0  9996
2 61756  97.3163 258.3048 0008984  83.9911 276.2364 15.51022702115165
HORIZON (RS59S)
1 61757U 24199Y   26022.95522209  .00087582  00000-0  10825-2 0  9995
2 61757  97.3163 260.0704 0009095  71.2547 288.9696 15.59791765115274
SITRO-AIS-20
1 61758U 24199Z   26022.97259178  .00004845  00000-0  42548-3 0  9999
2 61758  97.3315 231.5033 0005812 188.6017 171.5107 14.97000813113405
SITRO-AIS-19
1 61759U 24199AA  26022.97374416  .00004885  00000-0  42916-3 0  9996
2 61759  97.3316 231.5041 0005731 189.7160 170.3953 14.96981927113406
SITRO-AIS-41
1 61760U 24199AB  26022.96211212  .00044727  00000-0  78470-3 0  9994
2 61760  97.3176 258.1477 0008608  82.4354 277.7876 15.50382227115159
NORBY-3
1 61761U 24199AC  26022.97543036  .00032451  00000-0  65840-3 0  9996
2 61761  97.3168 257.1929 0009053  86.5446 273.6839 15.46259387115096
ARCTICSAT-1 (RS74S)
1 61762U 24199AD  26022.93673657  .00075252  00000-0  10180-2 0  9998
2 61762  97.3174 259.7922 0009215  69.8471 290.3775 15.57429404115251
SIT-HSE
1 61763U 24199AE  26022.92628362  .00024699  00000-0  52485-3 0  9995
2 61763  97.3194 257.4607 0007501 101.4399 258.7693 15.44968993115105
SIT-2086
1 61764U 24199AF  26022.97223187  .00023519  00000-0  49737-3 0  9993
2 61764  97.3185 257.5381 0009308  78.5502 281.6792 15.45103867111959
MORDOVIA-IOT (RS50S)
1 61765U 24199AG  26022.92124466  .00504036  10106-3  15287-2 0  9990
2 61765  97.2979 263.9019 0006352  73.0988 287.0982 15.92043543112388
RUZAEVKA-390 (RS44S)
1 61766U 24199AH  26021.93262344  .00188984  00000-0  13985-2 0  9991
2 61766  97.3089 261.1571 0007486  68.5488 291.6574 15.72340104112118
HOD-HOD
1 61768U 24199AK  26022.95175604  .00021955  00000-0  50048-3 0  9994
2 61768  97.3190 256.5387 0008225  94.0614 266.1574 15.42899876111896
KOSAR
1 61769U 24199AL  26022.96995300  .00029805  00000-0  63305-3 0  9991
2 61769  97.3185 257.0942 0007987  93.1039 267.1124 15.44942066111938
SITRO-AIS-48
1 61771U 24199AN  26022.96484196  .00034914  00000-0  71241-3 0  9995
2 61771  97.3156 256.4844 0011290  97.2654 262.9879 15.46053465111908
HYPERVIEW-1G (RS66S)
1 61772U 24199AP  26022.93643234  .00058489  00000-0  96566-3 0  9993
2 61772  97.3157 257.9989 0011730  86.8921 273.3674 15.51996807111996
SITRO-AIS-47
1 61773U 24199AQ  26022.92337399  .00038723  00000-0  78010-3 0  9998
2 61773  97.3157 256.5506 0011220  97.4024 262.8502 15.46406787111904
SITRO-AIS-46
1 61774U 24199AR  26022.96077192  .00038034  00000-0  74603-3 0  9994
2 61774  97.3150 256.7791 0011136  97.1422 263.1095 15.47188135111929
CSTP-2.2
1 61775U 24199AS  26022.92308937  .00019474  00000-0  49684-3 0  9993
2 61775  97.3207 254.9504 0018413  84.7913 275.5434 15.39371697111783
SITRO-AIS-40
1 61776U 24199AT  26022.95697209  .00037899  00000-0  74060-3 0  9997
2 61776  97.3149 256.7877 0011213  96.8403 263.4123 15.47296835115077
CSTP-2.1
1 61777U 24199AU  26022.96777050  .00020551  00000-0  51498-3 0  9999
2 61777  97.3208 255.0352 0018028  85.0175 275.3128 15.39917686111798
SITRO-AIS-39
1 61778U 24199AV  26022.94010439  .00036434  00000-0  74717-3 0  9995
2 61778  97.3154 256.3680 0011536  98.5160 261.7397 15.45894435111898
ALTAIR (RS65S)
1 61779U 24199AW  26022.92110466  .00013429  00000-0  41131-3 0  9998
2 61779  97.3231 253.3419 0015542 105.0762 255.2202 15.33806314114820
SITRO-AIS-37
1 61780U 24199AX  26022.95331133  .00037007  00000-0  74530-3 0  9996
2 61780  97.3162 256.5508 0011664  98.0917 262.1657 15.46419470111907
ASRTU-1 (RS64S/BJ2CR/AO-123)
1 61781U 24199AY  26022.94064244  .00011437  00000-0  35990-3 0  9998
2 61781  97.3211 252.9613 0015979 106.1812 254.1191 15.32977976111659
TUSUR GO (RS78S)
1 61782U 24199AZ  26022.96967103  .00092135  00000-0  11518-2 0  9990
2 61782  97.3118 259.1202 0010339  82.2857 277.9573 15.59460542112076
ZIMSAT-2 (Z2AS)
1 61783U 24199BA  26019.35456962  .04862743  23849-5  18127-2 0  9994
2 61783  97.2851 260.0130 0004185  96.0999 264.0769 16.24493422114974
SAMSAT-IONOSPHERE (RS75S)
1 61784U 24199BB  26022.95896323  .00033356  00000-0  68628-3 0  9991
2 61784  97.3182 256.5001 0012962  92.7041 267.5692 15.45798193115040
RTU MIREA-1 (RS51S)
1 61785U 24199BC  26022.94169101  .00039213  00000-0  76686-3 0  9999
2 61785  97.3175 256.8148 0012685  90.5330 269.7374 15.47247701111916
SITRO-AIS-38
1 61786U 24199BD  26022.91867302  .00020587  00000-0  47033-3 0  9993
2 61786  97.3169 256.1285 0012335 101.0135 259.2500 15.42801249111876
2024-199BE (? SWSU-60)
1 61787U 24199BE  26022.95380345  .00011003  00000-0  34141-3 0  9994
2 61787  97.3219 253.1249 0015893 105.6653 254.6344 15.33437785114819
SITRO-AIS-45
1 61788U 24199BF  26022.97873836  .00035690  00000-0  72730-3 0  9993
2 61788  97.3151 256.4430 0011546  98.2833 261.9727 15.46083708111887
SITRO-AIS-17
1 61789U 24199BG  26022.96486492  .00004628  00000-0  40653-3 0  9997
2 61789  97.3321 231.5373 0005702 196.4587 163.6452 14.97012600110308
SITRO-AIS-18
1 61790U 24199BH  26022.97409693  .00004874  00000-0  42828-3 0  9997
2 61790  97.3317 231.5065 0005710 191.3554 168.7541 14.96971463110305
INNOCUBE (TUBSAT-31)
1 62616U 25009H   26022.71681045  .00010806  00000-0  44857-3 0  9997
2 62616  97.4027 104.4142 0007416 120.5351 239.6620 15.23992694 56642
HADES-R (SO-124)
1 62690U 25009CK  26022.71617509  .00656439  00000-0  26454-2 0  9993
2 62690  97.3720 112.5160 0006062 293.6924  66.3710 15.84764250 57207
OTP-2
1 63235U 25052AB  26022.29028242  .00007407  00000-0  33110-3 0  9993
2 63235  97.4044 276.9780 0005623 331.6501  28.4429 15.21599488 47667
HADES-ICM (SO-125)
1 63492U 25052BN  26022.43950236  .00095625  00000-0  19497-2 0  9991
2 63492  97.4028 281.5906 0004740 312.8214  47.2636 15.45859878 47978
IONOSFERA-M 03
1 64876U 25155A   26022.96196700  .00000169  00000-0  96957-4 0  9995
2 64876  98.5841 348.6737 0000361 331.7261  28.3897 14.21453279 25775
IONOSFERA-M 04
1 64877U 25155B   26022.99699936  .00000183  00000-0  10307-3 0  9998
2 64877  98.5840 348.6268 0000438  79.9005 280.2222 14.21454699 25774
INNOSAT16 (RS92S7)
1 64878U 25155C   26022.94596927  .00008774  00000-0  37152-3 0  9991
2 64878  97.4394 350.9067 0010389 348.3659  11.7336 15.23360614 58544
GEOSCAN-6 (RS92S6)
1 64879U 25155D   26022.91933394  .00014334  00000-0  54885-3 0  9993
2 64879  97.4396 351.4182 0007617 348.3895  11.7167 15.26630201 58573
